{
  "type": "FeatureCollection",
  "features": [
    {
      "type": "Feature",
      "properties": {
        "norad_id": 65731,
        "name": "1998-067XK",
        "group": "stations",
        "lat": -10.29391274295936,
        "lon": -24.602912778211156,
        "alt_km": 371.94306969233276,
        "timestamp": "2025-12-10T18:56:58.849218+00:00",
        "meta_object_name": "1998-067XK",
        "meta_object_id": "1998-067XK",
        "meta_epoch": "2025-12-10T11:59:54.530016",
        "meta_mean_motion": 15.65134348,
        "meta_eccentricity": 0.0005181,
        "meta_inclination": 51.6281,
        "meta_ra_of_asc_node": 148.5918,
        "meta_arg_of_pericenter": 231.8122,
        "meta_mean_anomaly": 128.2407,
        "meta_ephemeris_type": 0,
        "meta_classification_type": "U",
        "meta_norad_cat_id": 65731,
        "meta_element_set_no": 999,
        "meta_rev_at_epoch": 1279,
        "meta_bstar": 0.0012259,
        "meta_mean_motion_dot": 0.00124892,
        "meta_mean_motion_ddot": 0,
        "tle_line1": "1 65731U 98067XK  25344.49993669  .00124892  00000+0  12259-2 0  9991",
        "tle_line2": "2 65731  51.6281 148.5918 0005181 231.8122 128.2407 15.65134348 12790"
      },
      "geometry": {
        "type": "Point",
        "coordinates": [
          -24.602912778211156,
          -10.29391274295936
        ]
      }
    },
    {
      "type": "Feature",
      "properties": {
        "norad_id": 65732,
        "name": "RSP-03",
        "group": "stations",
        "lat": 26.100883475274564,
        "lon": -56.3808527713194,
        "alt_km": 361.7654372344932,
        "timestamp": "2025-12-10T18:56:58.849228+00:00",
        "meta_object_name": "RSP-03",
        "meta_object_id": "1998-067XL",
        "meta_epoch": "2025-12-10T12:12:40.904064",
        "meta_mean_motion": 15.678372,
        "meta_eccentricity": 0.0005896,
        "meta_inclination": 51.6265,
        "meta_ra_of_asc_node": 147.8923,
        "meta_arg_of_pericenter": 236.0858,
        "meta_mean_anomaly": 123.9578,
        "meta_ephemeris_type": 0,
        "meta_classification_type": "U",
        "meta_norad_cat_id": 65732,
        "meta_element_set_no": 999,
        "meta_rev_at_epoch": 1281,
        "meta_bstar": 0.0013955,
        "meta_mean_motion_dot": 0.00159362,
        "meta_mean_motion_ddot": 0,
        "tle_line1": "1 65732U 98067XL  25344.50880676  .00159362  00000+0  13955-2 0  9991",
        "tle_line2": "2 65732  51.6265 147.8923 0005896 236.0858 123.9578 15.67837200 12810"
      },
      "geometry": {
        "type": "Point",
        "coordinates": [
          -56.3808527713194,
          26.100883475274564
        ]
      }
    },
    {
      "type": "Feature",
      "properties": {
        "norad_id": 65733,
        "name": "GHS-01",
        "group": "stations",
        "lat": 16.280600236809686,
        "lon": 158.5996536739916,
        "alt_km": 348.9789939730026,
        "timestamp": "2025-12-10T18:56:58.849238+00:00",
        "meta_object_name": "GHS-01",
        "meta_object_id": "1998-067XM",
        "meta_epoch": "2025-12-09T18:28:18.827904",
        "meta_mean_motion": 15.73188946,
        "meta_eccentricity": 0.00069378,
        "meta_inclination": 51.6282,
        "meta_ra_of_asc_node": 150.4557,
        "meta_arg_of_pericenter": 260.0742,
        "meta_mean_anomaly": 99.9474,
        "meta_ephemeris_type": 0,
        "meta_classification_type": "U",
        "meta_norad_cat_id": 65733,
        "meta_element_set_no": 999,
        "meta_rev_at_epoch": 1271,
        "meta_bstar": 0.0015641531,
        "meta_mean_motion_dot": 0.00225395,
        "meta_mean_motion_ddot": 0,
        "tle_line1": "1 65733U 98067XM  25343.76966236  .00225395  00000+0  15642-2 0  9991",
        "tle_line2": "2 65733  51.6282 150.4557 0006937 260.0742  99.9474 15.73188946 12718"
      },
      "geometry": {
        "type": "Point",
        "coordinates": [
          158.5996536739916,
          16.280600236809686
        ]
      }
    },
    {
      "type": "Feature",
      "properties": {
        "norad_id": 65941,
        "name": "YOTSUBA-KULOVER",
        "group": "stations",
        "lat": -1.7812432015441828,
        "lon": 148.3649497306596,
        "alt_km": 391.919567416322,
        "timestamp": "2025-12-10T18:56:58.849248+00:00",
        "meta_object_name": "YOTSUBA-KULOVER",
        "meta_object_id": "1998-067XN",
        "meta_epoch": "2025-12-10T06:39:08.151552",
        "meta_mean_motion": 15.58984772,
        "meta_eccentricity": 0.00015635,
        "meta_inclination": 51.6286,
        "meta_ra_of_asc_node": 152.3518,
        "meta_arg_of_pericenter": 229.167,
        "meta_mean_anomaly": 130.9187,
        "meta_ephemeris_type": 0,
        "meta_classification_type": "U",
        "meta_norad_cat_id": 65941,
        "meta_element_set_no": 999,
        "meta_rev_at_epoch": 947,
        "meta_bstar": 0.0011499536,
        "meta_mean_motion_dot": 0.00091734,
        "meta_mean_motion_ddot": 0,
        "tle_line1": "1 65941U 98067XN  25344.27717768  .00091734  00000+0  11500-2 0  9990",
        "tle_line2": "2 65941  51.6286 152.3518 0001563 229.1670 130.9187 15.58984772  9477"
      },
      "geometry": {
        "type": "Point",
        "coordinates": [
          148.3649497306596,
          -1.7812432015441828
        ]
      }
    },
    {
      "type": "Feature",
      "properties": {
        "norad_id": 65942,
        "name": "BOTAN",
        "group": "stations",
        "lat": -41.13811924179873,
        "lon": 105.33878188885097,
        "alt_km": 385.08550627089244,
        "timestamp": "2025-12-10T18:56:58.849258+00:00",
        "meta_object_name": "BOTAN",
        "meta_object_id": "1998-067XP",
        "meta_epoch": "2025-12-09T18:37:41.598624",
        "meta_mean_motion": 15.6202186,
        "meta_eccentricity": 0.00035332,
        "meta_inclination": 51.6281,
        "meta_ra_of_asc_node": 154.2559,
        "meta_arg_of_pericenter": 214.7567,
        "meta_mean_anomaly": 145.3196,
        "meta_ephemeris_type": 0,
        "meta_classification_type": "U",
        "meta_norad_cat_id": 65942,
        "meta_element_set_no": 999,
        "meta_rev_at_epoch": 940,
        "meta_bstar": 0.0013930428,
        "meta_mean_motion_dot": 0.00125565,
        "meta_mean_motion_ddot": 0,
        "tle_line1": "1 65942U 98067XP  25343.77617591  .00125565  00000+0  13930-2 0  9997",
        "tle_line2": "2 65942  51.6281 154.2559 0003533 214.7567 145.3196 15.62021860  9401"
      },
      "geometry": {
        "type": "Point",
        "coordinates": [
          105.33878188885097,
          -41.13811924179873
        ]
      }
    },
    {
      "type": "Feature",
      "properties": {
        "norad_id": 65943,
        "name": "E-KAGAKU-1",
        "group": "stations",
        "lat": -1.74816508685442,
        "lon": 148.38523089755066,
        "alt_km": 394.6232295039508,
        "timestamp": "2025-12-10T18:56:58.849268+00:00",
        "meta_object_name": "E-KAGAKU-1",
        "meta_object_id": "1998-067XQ",
        "meta_epoch": "2025-12-10T06:39:08.237952",
        "meta_mean_motion": 15.5900432,
        "meta_eccentricity": 0.00052507,
        "meta_inclination": 51.6298,
        "meta_ra_of_asc_node": 152.3458,
        "meta_arg_of_pericenter": 191.2269,
        "meta_mean_anomaly": 168.8608,
        "meta_ephemeris_type": 0,
        "meta_classification_type": "U",
        "meta_norad_cat_id": 65943,
        "meta_element_set_no": 999,
        "meta_rev_at_epoch": 947,
        "meta_bstar": 0.0012588803,
        "meta_mean_motion_dot": 0.00100705,
        "meta_mean_motion_ddot": 0,
        "tle_line1": "1 65943U 98067XQ  25344.27717868  .00100705  00000+0  12589-2 0  9990",
        "tle_line2": "2 65943  51.6298 152.3458 0005250 191.2269 168.8608 15.59004320  9476"
      },
      "geometry": {
        "type": "Point",
        "coordinates": [
          148.38523089755066,
          -1.74816508685442
        ]
      }
    },
    {
      "type": "Feature",
      "properties": {
        "norad_id": 66052,
        "name": "HRC MONOBLOCK CAMERA",
        "group": "stations",
        "lat": 14.291793647318254,
        "lon": 162.87270210087863,
        "alt_km": 406.3048100382366,
        "timestamp": "2025-12-10T18:56:58.849280+00:00",
        "meta_object_name": "HRC MONOBLOCK CAMERA",
        "meta_object_id": "1998-067XR",
        "meta_epoch": "2025-12-10T01:53:33.064224",
        "meta_mean_motion": 15.53848796,
        "meta_eccentricity": 0.00036764,
        "meta_inclination": 51.6294,
        "meta_ra_of_asc_node": 154.7721,
        "meta_arg_of_pericenter": 173.0963,
        "meta_mean_anomaly": 187.0078,
        "meta_ephemeris_type": 0,
        "meta_classification_type": "U",
        "meta_norad_cat_id": 66052,
        "meta_element_set_no": 999,
        "meta_rev_at_epoch": 842,
        "meta_bstar": 0.00070942813,
        "meta_mean_motion_dot": 0.00046287,
        "meta_mean_motion_ddot": 0,
        "tle_line1": "1 66052U 98067XR  25344.07885491  .00046287  00000+0  70943-3 0  9991",
        "tle_line2": "2 66052  51.6294 154.7721 0003676 173.0963 187.0078 15.53848796  8427"
      },
      "geometry": {
        "type": "Point",
        "coordinates": [
          162.87270210087863,
          14.291793647318254
        ]
      }
    }
  ]
}